{"type": "FeatureCollection", "features": [ {"type": "Feature", "properties": {"norad_id": 66416, "name": "HULIANWANG DIGUI 13E", "group": "last-30-days", "lat": 42.35122630318996, "lon": 48.98265026843087, "alt_km": 821.3634492625197, "timestamp": "2025-12-08T17:43:03.630939+00:00", "meta": {"OBJECT_NAME": "HULIANWANG DIGUI 13E", "OBJECT_ID": "2025-258E", "EPOCH": "2025-12-08T00:16:43.750272", "MEAN_MOTION": 14.20474956, "ECCENTRICITY": 0.0007438, "INCLINATION": 50.0072, "RA_OF_ASC_NODE": 281.949, "ARG_OF_PERICENTER": 344.8233, "MEAN_ANOMALY": 15.2455, "EPHEMERIS_TYPE": 0, "CLASSIFICATION_TYPE": "U", "NORAD_CAT_ID": 66416, "ELEMENT_SET_NO": 999, "REV_AT_EPOCH": 398, "BSTAR": 0.00035674733, "MEAN_MOTION_DOT": 6.13e-06, "MEAN_MOTION_DDOT": 0}, "tle": {"line1": "1 66416U 25258E   25342.01161748  .00000613  00000+0  35675-3 0  9997", "line2": "2 66416  50.0072 281.9490 0007438 344.8233  15.2455 14.20474956  3985"}}, "geometry": {"type": "Point", "coordinates": [48.98265026843087, 42.35122630318996]}}, {"type": "Feature", "properties": {"norad_id": 66417, "name": "HULIANWANG DIGUI 13F", "group": "last-30-days", "lat": 37.276675716768054, "lon": 59.14570499031553, "alt_km": 821.6670860591776, "timestamp": "2025-12-08T17:43:03.630950+00:00", "meta": {"OBJECT_NAME": "HULIANWANG DIGUI 13F", "OBJECT_ID": "2025-258F", "EPOCH": "2025-12-08T00:14:13.695936", "MEAN_MOTION": 14.2063904, "ECCENTRICITY": 0.00067987, "INCLINATION": 50.0011, "RA_OF_ASC_NODE": 281.9191, "ARG_OF_PERICENTER": 347.8212, "MEAN_ANOMALY": 12.2534, "EPHEMERIS_TYPE": 0, "CLASSIFICATION_TYPE": "U", "NORAD_CAT_ID": 66417, "ELEMENT_SET_NO": 999, "REV_AT_EPOCH": 398, "BSTAR": 0.00031137712, "MEAN_MOTION_DOT": 5.17e-06, "MEAN_MOTION_DDOT": 0}, "tle": {"line1": "1 66417U 25258F   25342.00988074  .00000517  00000+0  31138-3 0  9999", "line2": "2 66417  50.0011 281.9191 0006798 347.8212  12.2534 14.20639040  3987"}}, "geometry": {"type": "Point", "coordinates": [59.14570499031553, 37.276675716768054]}}, {"type": "Feature", "properties": {"norad_id": 66418, "name": "HULIANWANG DIGUI 13G", "group": "last-30-days", "lat": 18.45682183087018, "lon": 82.54460008785026, "alt_km": 824.0747104550237, "timestamp": "2025-12-08T17:43:03.630960+00:00", "meta": {"OBJECT_NAME": "HULIANWANG DIGUI 13G", "OBJECT_ID": "2025-258G", "EPOCH": "2025-12-08T00:06:43.626240", "MEAN_MOTION": 14.21095084, "ECCENTRICITY": 0.00064315, "INCLINATION": 50.001, "RA_OF_ASC_NODE": 281.8936, "ARG_OF_PERICENTER": 342.1402, "MEAN_ANOMALY": 17.9283, "EPHEMERIS_TYPE": 0, "CLASSIFICATION_TYPE": "U", "NORAD_CAT_ID": 66418, "ELEMENT_SET_NO": 999, "REV_AT_EPOCH": 398, "BSTAR": 0.00026400163, "MEAN_MOTION_DOT": 4.19e-06, "MEAN_MOTION_DDOT": 0}, "tle": {"line1": "1 66418U 25258G   25342.00467160  .00000419  00000+0  26400-3 0  9995", "line2": "2 66418  50.0010 281.8936 0006431 342.1402  17.9283 14.21095084  3984"}}, "geometry": {"type": "Point", "coordinates": [82.54460008785026, 18.45682183087018]}}, {"type": "Feature", "properties": {"norad_id": 66419, "name": "HULIANWANG DIGUI 13H", "group": "last-30-days", "lat": 11.315926494563149, "lon": 89.12953605537457, "alt_km": 825.0623425970452, "timestamp": "2025-12-08T17:43:03.630971+00:00", "meta": {"OBJECT_NAME": "HULIANWANG DIGUI 13H", "OBJECT_ID": "2025-258H", "EPOCH": "2025-12-08T01:45:21.769632", "MEAN_MOTION": 14.21195005, "ECCENTRICITY": 0.00066788, "INCLINATION": 50.0005, "RA_OF_ASC_NODE": 281.5907, "ARG_OF_PERICENTER": 343.8821, "MEAN_ANOMALY": 16.1878, "EPHEMERIS_TYPE": 0, "CLASSIFICATION_TYPE": "U", "NORAD_CAT_ID": 66419, "ELEMENT_SET_NO": 999, "REV_AT_EPOCH": 399, "BSTAR": 0.00024420604, "MEAN_MOTION_DOT": 3.76e-06, "MEAN_MOTION_DDOT": 0}, "tle": {"line1": "1 66419U 25258H   25342.07316863  .00000376  00000+0  24421-3 0  9999", "line2": "2 66419  50.0005 281.5907 0006678 343.8821  16.1878 14.21195005  3996"}}, "geometry": {"type": "Point", "coordinates": [89.12953605537457, 11.315926494563149]}}, {"type": "Feature", "properties": {"norad_id": 66420, "name": "HULIANWANG DIGUI 13J", "group": "last-30-days", "lat": 5.0276530259985, "lon": 94.55340922696027, "alt_km": 824.5197910342849, "timestamp": "2025-12-08T17:43:03.630981+00:00", "meta": {"OBJECT_NAME": "HULIANWANG DIGUI 13J", "OBJECT_ID": "2025-258J", "EPOCH": "2025-12-08T00:01:56.434368", "MEAN_MOTION": 14.21408362, "ECCENTRICITY": 0.00056864, "INCLINATION": 50.0052, "RA_OF_ASC_NODE": 281.8794, "ARG_OF_PERICENTER": 345.903, "MEAN_ANOMALY": 14.1722, "EPHEMERIS_TYPE": 0, "CLASSIFICATION_TYPE": "U", "NORAD_CAT_ID": 66420, "ELEMENT_SET_NO": 999, "REV_AT_EPOCH": 397, "BSTAR": 0.00024099308, "MEAN_MOTION_DOT": 3.71e-06, "MEAN_MOTION_DDOT": 0}, "tle": {"line1": "1 66420U 25258J   25342.00134762  .00000371  00000+0  24099-3 0  9996", "line2": "2 66420  50.0052 281.8794 0005686 345.9030  14.1722 14.21408362  3977"}}, "geometry": {"type": "Point", "coordinates": [94.55340922696027, 5.0276530259985]}}, {"type": "Feature", "properties": {"norad_id": 66421, "name": "CZ-12 R/B", "group": "last-30-days", "lat": -7.681100219206072, "lon": 101.81402247211297, "alt_km": 719.677111590504, "timestamp": "2025-12-08T17:43:03.630995+00:00", "meta": {"OBJECT_NAME": "CZ-12 R/B", "OBJECT_ID": "2025-258K", "EPOCH": "2025-12-08T06:51:30.704256", "MEAN_MOTION": 14.42321586, "ECCENTRICITY": 0.00645171, "INCLINATION": 49.996, "RA_OF_ASC_NODE": 277.2749, "ARG_OF_PERICENTER": 233.3884, "MEAN_ANOMALY": 126.1092, "EPHEMERIS_TYPE": 0, "CLASSIFICATION_TYPE": "U", "NORAD_CAT_ID": 66421, "ELEMENT_SET_NO": 999, "REV_AT_EPOCH": 407, "BSTAR": 0.00015018702, "MEAN_MOTION_DOT": 3.42e-06, "MEAN_MOTION_DDOT": 0}, "tle": {"line1": "1 66421U 25258K   25342.28577204  .00000342  00000+0  15019-3 0  9999", "line2": "2 66421  49.9960 277.2749 0064517 233.3884 126.1092 14.42321586  4078"}}, "geometry": {"type": "Point", "coordinates": [101.81402247211297, -7.681100219206072]}}, {"type": "Feature", "properties": {"norad_id": 66422, "name": "STARLINK-35617", "group": "last-30-days", "lat": 27.74415132457007, "lon": 105.53121075795359, "alt_km": 439.977094797724, "timestamp": "2025-12-08T17:43:03.631006+00:00", "meta": {"OBJECT_NAME": "STARLINK-35617", "OBJECT_ID": "2025-259A", "EPOCH": "2025-12-08T06:38:27.210048", "MEAN_MOTION": 15.40738952, "ECCENTRICITY": 0.00010963, "INCLINATION": 43.0017, "RA_OF_ASC_NODE": 73.8291, "ARG_OF_PERICENTER": 258.3804, "MEAN_ANOMALY": 101.6929, "EPHEMERIS_TYPE": 0, "CLASSIFICATION_TYPE": "U", "NORAD_CAT_ID": 66422, "ELEMENT_SET_NO": 999, "REV_AT_EPOCH": 547, "BSTAR": 0.0011336609, "MEAN_MOTION_DOT": 0.00047408, "MEAN_MOTION_DDOT": 0}, "tle": {"line1": "1 66422U 25259A   25342.27670382  .00047408  00000+0  11337-2 0  9993", "line2": "2 66422  43.0017  73.8291 0001096 258.3804 101.6929 15.40738952  5471"}}, "geometry": {"type": "Point", "coordinates": [105.53121075795359, 27.74415132457007]}}, {"type": "Feature", "properties": {"norad_id": 66423, "name": "STARLINK-35618", "group": "last-30-days", "lat": 34.129628591984535, "lon": 117.80291519906189, "alt_km": 439.4545673306393, "timestamp": "2025-12-08T17:43:03.631018+00:00", "meta": {"OBJECT_NAME": "STARLINK-35618", "OBJECT_ID": "2025-259B", "EPOCH": "2025-12-08T06:00:02.999808", "MEAN_MOTION": 15.40641504, "ECCENTRICITY": 0.00013924, "INCLINATION": 43.0003, "RA_OF_ASC_NODE": 73.9508, "ARG_OF_PERICENTER": 253.9371, "MEAN_ANOMALY": 330.4933, "EPHEMERIS_TYPE": 0, "CLASSIFICATION_TYPE": "U", "NORAD_CAT_ID": 66423, "ELEMENT_SET_NO": 999, "REV_AT_EPOCH": 555, "BSTAR": 0.0016487104, "MEAN_MOTION_DOT": 0.00069058, "MEAN_MOTION_DDOT": 0}, "tle": {"line1": "1 66423U 25259B   25342.25003472  .00069058  00000+0  16487-2 0  9998", "line2": "2 66423  43.0003  73.9508 0001392 253.9371 330.4933 15.40641504  5550"}}, "geometry": {"type": "Point", "coordinates": [117.80291519906189, 34.129628591984535]}}, {"type": "Feature", "properties": {"norad_id": 66424, "name": "STARLINK-35588", "group": "last-30-days", "lat": 39.17402201173129, "lon": 132.08125488512036, "alt_km": 438.54441194911215, "timestamp": "2025-12-08T17:43:03.631031+00:00", "meta": {"OBJECT_NAME": "STARLINK-35588", "OBJECT_ID": "2025-259C", "EPOCH": "2025-12-08T06:00:02.999808", "MEAN_MOTION": 15.40687613, "ECCENTRICITY": 0.00013937, "INCLINATION": 43.0005, "RA_OF_ASC_NODE": 73.9215, "ARG_OF_PERICENTER": 260.1098, "MEAN_ANOMALY": 336.7424, "EPHEMERIS_TYPE": 0, "CLASSIFICATION_TYPE": "U", "NORAD_CAT_ID": 66424, "ELEMENT_SET_NO": 999, "REV_AT_EPOCH": 555, "BSTAR": 0.0017152724, "MEAN_MOTION_DOT": 0.00071997, "MEAN_MOTION_DDOT": 0}, "tle": {"line1": "1 66424U 25259C   25342.25003472  .00071997  00000+0  17153-2 0  9995", "line2": "2 66424  43.0005  73.9215 0001393 260.1098 336.7424 15.40687613  5550"}}, "geometry": {"type": "Point", "coordinates": [132.08125488512036, 39.17402201173129]}}, {"type": "Feature", "properties": {"norad_id": 66425, "name": "STARLINK-35555", "group": "last-30-days", "lat": 42.219958453392586, "lon": 147.9108501103736, "alt_km": 438.1611959839074, "timestamp": "2025-12-08T17:43:03.631042+00:00", "meta": {"OBJECT_NAME": "STARLINK-35555", "OBJECT_ID": "2025-259D", "EPOCH": "2025-12-08T06:00:02.999808", "MEAN_MOTION": 15.40646816, "ECCENTRICITY": 0.00012826, "INCLINATION": 43.0004, "RA_OF_ASC_NODE": 73.8887, "ARG_OF_PERICENTER": 264.6153, "MEAN_ANOMALY": 344.6847, "EPHEMERIS_TYPE": 0, "CLASSIFICATION_TYPE": "U", "NORAD_CAT_ID": 66425, "ELEMENT_SET_NO": 999, "REV_AT_EPOCH": 555, "BSTAR": 0.0015898466, "MEAN_MOTION_DOT": 0.00066572, "MEAN_MOTION_DDOT": 0}, "tle": {"line1": "1 66425U 25259D   25342.25003472  .00066572  00000+0  15898-2 0  9993", "line2": "2 66425  43.0004  73.8887 0001282 264.6153 344.6847 15.40646816  5559"}}, "geometry": {"type": "Point", "coordinates": [147.9108501103736, 42.219958453392586]}}]}